NORAD_CAT_ID,OBJECT_NAME,OBJECT_TYPE,EPOCH,MEAN_MOTION,ECCENTRICITY,INCLINATION,RA_OF_ASC_NODE,ARG_OF_PERICENTER,MEAN_ANOMALY,BSTAR,MEAN_MOTION_DOT,MEAN_MOTION_DDOT,TLE_LINE0,TLE_LINE1,TLE_LINE2,SEMIMAJOR_AXIS,PERIOD,APOGEE,PERIGEE,DECAYED
53737.0,STARLINK-4646,PAYLOAD,2023-09-15 01:11:21,15.08835542,0.0001019,53.2187,14.0382,93.3996,266.7113,-6.1106e-05,-1.26e-05,0.0,0 STARLINK-4646,1 53737U 22107AP  23258.04955455 -.00001260  00000-0 -61106-4 0  9993,2 53737  53.2187  14.0382 0001019  93.3996 266.7113 15.08835542 56942,6917.894,95.438,540.464,539.054,0.0
53737.0,STARLINK-4646,PAYLOAD,2023-09-15 13:54:25,15.08850978,0.0001241,53.2184,11.6601,71.7441,288.3686,0.00010141,1.327e-05,0.0,0 STARLINK-4646,1 53737U 22107AP  23258.57946389  .00001327  00000-0  10141-3 0  9991,2 53737  53.2184  11.6601 0001241  71.7441 288.3686 15.08850978 57809,6917.847,95.437,540.57,538.853,0.0
53737.0,STARLINK-4646,PAYLOAD,2023-09-16 01:02:08,15.08846014,0.0001384,53.2187,9.5801,72.2337,287.8806,0.00019214,2.772e-05,0.0,0 STARLINK-4646,1 53737U 22107AP  23259.04314853  .00002772  00000-0  19214-3 0  9994,2 53737  53.2187   9.5801 0001384  72.2337 287.8806 15.08846014 57093,6917.862,95.437,540.684,538.77,0.0
53737.0,STARLINK-4646,PAYLOAD,2023-09-16 07:23:41,15.0883705,0.0001476,53.219,8.39,71.6149,288.5004,0.00033072,4.979e-05,0.0,0 STARLINK-4646,1 53737U 22107AP  23259.30811580  .00004979  00000-0  33072-3 0  9991,2 53737  53.2190   8.3900 0001476  71.6149 288.5004 15.08837050 57133,6917.889,95.438,540.775,538.733,0.0
53737.0,STARLINK-4646,PAYLOAD,2023-09-16 13:45:13,15.08832792,0.0001482,53.2203,7.2011,76.5523,283.5634,0.00024719,3.647e-05,0.0,0 STARLINK-4646,1 53737U 22107AP  23259.57307374  .00003647  00000-0  24719-3 0  9990,2 53737  53.2203   7.2011 0001482  76.5523 283.5634 15.08832792 57958,6917.902,95.438,540.793,538.742,0.0
53737.0,STARLINK-4646,PAYLOAD,2023-09-17 10:25:14,15.08846715,0.0001416,53.2196,3.3359,74.9237,285.1911,5.2249e-05,5.44e-06,0.0,0 STARLINK-4646,1 53737U 22107AP  23260.43419089  .00000544  00000-0  52249-4 0  9997,2 53737  53.2196   3.3359 0001416  74.9237 285.1911 15.08846715 57307,6917.86,95.437,540.704,538.745,0.0
53737.0,STARLINK-4646,PAYLOAD,2023-09-17 13:36:00,15.08851428,0.0001395,53.2202,2.7408,82.1758,277.9393,4.5717e-05,4.4e-06,0.0,0 STARLINK-4646,1 53737U 22107AP  23260.56666695  .00000440  00000-0  45717-4 0  9995,2 53737  53.2202   2.7408 0001395  82.1758 277.9393 15.08851428 58107,6917.845,95.437,540.675,538.745,0.0
53737.0,STARLINK-4646,PAYLOAD,2023-09-18 10:16:02,15.08807211,0.0001175,53.2199,358.8757,87.9529,272.1598,0.00061463,9.499e-05,0.0,0 STARLINK-4646,1 53737U 22107AP  23261.42780174  .00009499  00000-0  61463-3 0  9998,2 53737  53.2199 358.8757 0001175  87.9529 272.1598 15.08807211 57451,6917.981,95.44,540.658,539.033,0.0
53737.0,STARLINK-4646,PAYLOAD,2023-09-18 13:26:46,15.08847637,0.0001409,53.2199,358.2807,87.4318,272.6835,8.8775e-05,1.125e-05,0.0,0 STARLINK-4646,1 53737U 22107AP  23261.56026512  .00001125  00000-0  88775-4 0  9996,2 53737  53.2199 358.2807 0001409  87.4318 272.6835 15.08847637 58256,6917.857,95.437,540.697,538.747,0.0
53737.0,STARLINK-4646,PAYLOAD,2023-09-20 13:08:21,15.08826742,0.0001392,53.2188,349.3584,76.3783,283.7364,-0.00020225,-3.504e-05,0.0,0 STARLINK-4646,1 53737U 22107AP  23263.54747565 -.00003504  00000-0 -20225-3 0  9994,2 53737  53.2188 349.3584 0001392  76.3783 283.7364 15.08826742 57771,6917.921,95.438,540.749,538.823,0.0
53737.0,STARLINK-4646,PAYLOAD,2023-09-21 09:48:22,15.08833774,9.51e-05,53.2201,345.4941,79.5845,280.5254,0.0001554,2.186e-05,0.0,0 STARLINK-4646,1 53737U 22107AP  23264.40859735  .00002186  00000-0  15540-3 0  9990,2 53737  53.2201 345.4941 0000951  79.5845 280.5254 15.08833774 57906,6917.899,95.438,540.422,539.107,0.0
53737.0,STARLINK-4646,PAYLOAD,2023-09-21 12:59:08,15.08844911,0.0001364,53.2179,344.8983,70.5576,289.5563,9.8066e-05,1.273e-05,0.0,0 STARLINK-4646,1 53737U 22107AP  23264.54107245  .00001273  00000-0  98066-4 0  9998,2 53737  53.2179 344.8983 0001364  70.5576 289.5563 15.08844911 58706,6917.865,95.437,540.674,538.787,0.0
53737.0,STARLINK-4646,PAYLOAD,2023-09-22 04:53:00,15.08827935,0.0001535,53.2193,341.9253,77.2428,282.8735,0.00030017,4.491e-05,0.0,0 STARLINK-4646,1 53737U 22107AP  23265.20348098  .00004491  00000-0  30017-3 0  9991,2 53737  53.2193 341.9253 0001535  77.2428 282.8735 15.08827935 58029,6917.917,95.438,540.844,538.72,0.0
53737.0,STARLINK-4646,PAYLOAD,2023-09-22 12:49:56,15.08838353,0.0001433,53.2185,340.4392,67.8214,292.2931,0.00029569,4.421e-05,0.0,0 STARLINK-4646,1 53737U 22107AP  23265.53467722  .00004421  00000-0  29569-3 0  9996,2 53737  53.2185 340.4392 0001433  67.8214 292.2931 15.08838353 58853,6917.885,95.438,540.742,538.759,0.0
53737.0,STARLINK-4646,PAYLOAD,2023-09-22 19:11:28,15.08843705,0.0001447,53.2182,339.2492,66.7555,293.359,0.00031427,4.718e-05,0.0,0 STARLINK-4646,1 53737U 22107AP  23265.79963403  .00004718  00000-0  31427-3 0  9996,2 53737  53.2182 339.2492 0001447  66.7555 293.3590 15.08843705 58892,6917.869,95.437,540.735,538.733,0.0
53737.0,STARLINK-4646,PAYLOAD,2023-09-22 23:57:38,15.08832816,0.0001427,53.2182,338.3588,81.2572,278.8581,4.5366e-05,4.34e-06,0.0,0 STARLINK-4646,1 53737U 22107AP  23265.99836264  .00000434  00000-0  45366-4 0  9991,2 53737  53.2182 338.3588 0001427  81.2572 278.8581 15.08832816 58144,6917.902,95.438,540.755,538.78,0.0
53737.0,STARLINK-4646,PAYLOAD,2023-09-23 11:05:19,15.08847843,0.0001484,53.2172,336.2764,67.5024,292.6125,9.5018e-05,1.225e-05,0.0,0 STARLINK-4646,1 53737U 22107AP  23266.46203580  .00001225  00000-0  95018-4 0  9991,2 53737  53.2172 336.2764 0001484  67.5024 292.6125 15.08847843 58210,6917.856,95.437,540.748,538.695,0.0
53737.0,STARLINK-4646,PAYLOAD,2023-09-24 10:56:07,15.08841547,0.0001541,53.2174,331.8165,76.8267,283.2897,2.3717e-05,8.9e-07,0.0,0 STARLINK-4646,1 53737U 22107AP  23267.45563819  .00000089  00000-0  23717-4 0  9999,2 53737  53.2174 331.8165 0001541  76.8267 283.2897 15.08841547 58367,6917.876,95.437,540.807,538.675,0.0
53737.0,STARLINK-4646,PAYLOAD,2023-09-24 14:06:52,15.08848892,0.000139,53.2184,331.2192,95.3185,264.7966,5.4181e-05,5.75e-06,0.0,0 STARLINK-4646,1 53737U 22107AP  23267.58811319  .00000575  00000-0  54181-4 0  9993,2 53737  53.2184 331.2192 0001390  95.3185 264.7966 15.08848892 59169,6917.853,95.437,540.68,538.757,0.0
53737.0,STARLINK-4646,PAYLOAD,2023-09-25 09:11:31,15.08842953,0.0001787,53.2167,327.652,97.6037,262.5158,0.0001265,1.726e-05,0.0,0 STARLINK-4646,1 53737U 22107AP  23268.38299773  .00001726  00000-0  12650-3 0  9999,2 53737  53.2167 327.6520 0001787  97.6037 262.5158 15.08842953 58503,6917.871,95.437,540.973,538.5,0.0
53737.0,STARLINK-4646,PAYLOAD,2023-09-25 10:46:54,15.08845995,0.0001554,53.2165,327.3549,91.752,268.365,0.00017315,2.469e-05,0.0,0 STARLINK-4646,1 53737U 22107AP  23268.44923644  .00002469  00000-0  17315-3 0  9995,2 53737  53.2165 327.3549 0001554  91.7520 268.3650 15.08845995 59290,6917.862,95.437,540.802,538.652,0.0
53737.0,STARLINK-4646,PAYLOAD,2023-09-26 10:37:40,15.08855039,0.0001557,53.2172,322.8936,95.5799,264.537,0.00023987,3.533e-05,0.0,0 STARLINK-4646,1 53737U 22107AP  23269.44282919  .00003533  00000-0  23987-3 0  9994,2 53737  53.2172 322.8936 0001557  95.5799 264.5370 15.08855039 58668,6917.834,95.437,540.777,538.622,0.0
53737.0,STARLINK-4646,PAYLOAD,2023-09-27 08:53:04,15.08839334,0.0001776,53.2181,318.7308,115.7299,244.3877,-5.6542e-05,-1.188e-05,0.0,0 STARLINK-4646,1 53737U 22107AP  23270.37019500 -.00001188  00000-0 -56542-4 0  9992,2 53737  53.2181 318.7308 0001776 115.7299 244.3877 15.08839334 58802,6917.882,95.438,540.976,538.519,0.0
53737.0,STARLINK-4646,PAYLOAD,2023-09-27 12:03:51,15.08838793,0.0001614,53.218,318.1387,102.2716,257.8457,-4.428e-05,-9.93e-06,0.0,0 STARLINK-4646,1 53737U 22107AP  23270.50267611 -.00000993  00000-0 -44280-4 0  9994,2 53737  53.2180 318.1387 0001614 102.2716 257.8457 15.08838793 59608,6917.884,95.438,540.866,538.633,0.0
53737.0,STARLINK-4646,PAYLOAD,2023-09-28 11:54:39,15.08833734,0.0001484,53.2183,313.6773,91.843,268.2733,-3.2349e-05,-8.03e-06,0.0,0 STARLINK-4646,1 53737U 22107AP  23271.49628871 -.00000803  00000-0 -32349-4 0  9995,2 53737  53.2183 313.6773 0001484  91.8430 268.2733 15.08833734 58973,6917.9,95.438,540.791,538.738,0.0
53737.0,STARLINK-4646,PAYLOAD,2023-09-29 11:45:25,15.08844404,0.0001466,53.2171,309.2146,84.7715,275.3444,0.00019856,2.874e-05,0.0,0 STARLINK-4646,1 53737U 22107AP  23272.48988094  .00002874  00000-0  19856-3 0  9996,2 53737  53.2171 309.2146 0001466  84.7715 275.3444 15.08844404 59124,6917.867,95.437,540.746,538.718,0.0
53737.0,STARLINK-4646,PAYLOAD,2023-10-01 01:54:41,15.0884101,0.000181,53.2154,302.0791,76.3456,283.7738,-7.9751e-06,-4.15e-06,0.0,0 STARLINK-4646,1 53737U 22107AP  23274.07964464 -.00000415  00000-0 -79751-5 0  9991,2 53737  53.2154 302.0791 0001810  76.3456 283.7738 15.08841010 59369,6917.877,95.437,540.994,538.49,0.0
53737.0,STARLINK-4646,PAYLOAD,2023-10-01 08:16:13,15.08841553,0.0001644,53.2152,300.8877,83.9488,276.1691,8.6837e-06,-1.5e-06,0.0,0 STARLINK-4646,1 53737U 22107AP  23274.34460375 -.00000150  00000-0  86837-5 0  9991,2 53737  53.2152 300.8877 0001644  83.9488 276.1691 15.08841553 60180,6917.876,95.437,540.878,538.603,0.0
53737.0,STARLINK-4646,PAYLOAD,2023-10-02 08:07:01,15.08840866,0.0001529,53.2157,296.4274,86.3128,273.8039,-1.0788e-05,-4.6e-06,0.0,0 STARLINK-4646,1 53737U 22107AP  23275.33820621 -.00000460  00000-0 -10788-4 0  9991,2 53737  53.2157 296.4274 0001529  86.3128 273.8039 15.08840866 59551,6917.878,95.437,540.8,538.685,0.0
53737.0,STARLINK-4646,PAYLOAD,2023-10-03 07:57:47,15.08850421,0.0001538,53.2152,291.966,88.9468,271.17,0.00029766,4.454e-05,0.0,0 STARLINK-4646,1 53737U 22107AP  23276.33180356  .00004454  00000-0  29766-3 0  9996,2 53737  53.2152 291.9660 0001538  88.9468 271.1700 15.08850421 60488,6917.849,95.437,540.778,538.65,0.0
